OBJECT_NAME,OBJECT_ID,EPOCH,MEAN_MOTION,ECCENTRICITY,INCLINATION,RA_OF_ASC_NODE,ARG_OF_PERICENTER,MEAN_ANOMALY,EPHEMERIS_TYPE,CLASSIFICATION_TYPE,NORAD_CAT_ID,ELEMENT_SET_NO,REV_AT_EPOCH,BSTAR,MEAN_MOTION_DOT,MEAN_MOTION_DDOT
FLOCK 4BE-7,2024-149P,2026-07-23T04:35:10.311648,15.41756969,.00044636,97.3746,287.6020,129.4646,230.6997,0,U,60481,999,10779,.63798903E-3,.26956E-3,0
FLOCK 4BE-26,2024-149S,2026-07-23T05:12:18.387072,15.80773210,.00035893,97.3588,292.3547,217.0378,143.0642,0,U,60484,999,10813,.14712198E-2,.290751E-2,0
TOMORROW-S2,2024-149T,2026-07-23T04:45:02.999232,15.33227349,.00043847,97.3806,285.0898,129.5935,230.5695,0,U,60485,999,10760,.24307777E-3,.7727E-4,0
FLOCK 4BE-36,2024-149U,2026-07-23T04:02:55.603968,15.43742236,.00051768,97.3733,289.0528,131.0142,229.1555,0,U,60486,999,10790,.39729158E-3,.17889E-3,0
FLOCK 4BE-25,2024-149V,2026-07-23T04:00:16.029216,15.39708480,.00040029,97.3784,287.5820,124.9681,235.1941,0,U,60487,999,10777,.37380252E-3,.14702E-3,0
FLOCK 4BE-31,2024-149W,2026-07-23T03:56:16.517184,15.45403836,.00040999,97.3787,290.0167,131.4518,228.7083,0,U,60488,999,10793,.48239033E-3,.2301E-3,0
FLOCK 4BE-20,2024-149X,2026-07-23T03:32:49.482816,15.38963054,.00054757,97.3681,286.3508,131.4314,228.7403,0,U,60489,999,10774,.34035265E-3,.13056E-3,0
FLOCK 4BE-23,2024-149Y,2026-07-23T03:33:05.389920,15.38524373,.00051103,97.3764,286.7455,135.2537,224.9122,0,U,60490,999,10772,.38494802E-3,.14569E-3,0
FLOCK 4BE-15,2024-149Z,2026-07-23T04:39:31.859136,15.66502616,.00044298,97.3651,291.0938,177.0388,183.0900,0,U,60491,999,10805,.12497633E-2,.131865E-2,0
FLOCK 4BE-17,2024-149AA,2026-07-23T05:04:24.407040,15.40764656,.00047203,97.3762,287.8877,126.8308,233.3372,0,U,60492,999,10780,.42312886E-3,.1725E-3,0
NUSAT-50 (NANCY ROMAN),2024-149AB,2026-07-23T04:49:33.026016,15.30421995,.00047758,97.3774,285.2178,83.0064,277.1720,0,U,60493,999,10763,.31387243E-3,.9163E-4,0
FLOCK 4BE-22,2024-149AC,2026-07-23T05:23:47.359680,15.42290731,.00051718,97.3723,288.1526,131.8755,228.2934,0,U,60494,999,10785,.58427658E-3,.2512E-3,0
FLOCK 4BE-34,2024-149AD,2026-07-23T04:16:15.651552,15.42137182,.00053938,97.3766,288.9487,139.8061,220.3586,0,U,60495,999,10787,.39345078E-3,.16784E-3,0
TYCHE,2024-149AE,2026-07-23T04:53:16.928160,15.25789781,.00044539,97.3737,281.5323,146.7328,213.4191,0,U,60496,999,10739,.16077257E-3,.4036E-4,0
FLOCK 4BE-32,2024-149AF,2026-07-23T04:27:57.646368,15.43301800,.0005353,97.3709,288.5300,136.8434,223.3234,0,U,60497,999,10788,.43001312E-3,.19087E-3,0
NUSAT-48 (HENRIETTA LEAVITT),2024-149AG,2026-07-22T16:01:25.704768,15.29976514,.00049049,97.3904,284.9909,132.1158,228.0500,0,U,60498,999,10756,.26011572E-3,.7475E-4,0
FLOCK 4BE-30,2024-149AH,2026-07-23T04:49:03.207648,15.67688424,.0006222,97.3731,291.2128,201.6413,158.4586,0,U,60499,999,10739,.23000765E-2,.258655E-2,0
NUSAT-49 (KLARA DAN VON NEUMANN),2024-149AJ,2026-07-23T04:03:54.538272,15.29873402,.00028961,97.3780,285.2115,148.3571,211.7845,0,U,60500,999,10763,.96043304E-4,.2702E-4,0
FLOCK 4BE-11,2024-149AK,2026-07-23T05:26:37.089024,15.44098653,.00053742,97.3687,288.8351,136.9580,223.2090,0,U,60501,999,10791,.43159992E-3,.19682E-3,0
YAM-7,2024-149AN,2026-07-23T04:13:26.535648,15.32262504,.00044375,97.3770,284.2880,145.9611,214.1916,0,U,60504,999,10756,.23363882E-3,.7202E-4,0
FLOCK 4BE-24,2024-149AP,2026-07-23T05:01:22.611072,15.44349029,.00055598,97.3699,289.0906,146.9804,213.1793,0,U,60505,999,10792,.48279754E-3,.22222E-3,0
LUR-1,2024-149AQ,2026-07-23T04:57:56.062368,15.30523802,.00047419,97.3723,282.7816,157.2883,202.8568,0,U,60506,999,10748,.23229013E-3,.6781E-4,0
TANAGER-1,2024-149AR,2026-07-22T12:54:14.484960,15.43942180,.00036004,97.2319,297.6298,123.9157,236.2434,0,U,60507,999,10849,.7611011E-5,.262E-5,0
EAGLEEYE,2024-149AS,2026-07-23T04:52:50.511360,15.78556291,.00041585,97.3702,299.7300,173.5924,186.5397,0,U,60508,999,10860,.88154601E-3,.155157E-2,0
FLOCK 4BE-29,2024-149AT,2026-07-23T04:37:09.721632,15.46012232,.00041169,97.3794,290.6454,157.3326,202.8106,0,U,60509,999,10797,.10109856E-2,.49504E-3,0
FLOCK 4BE-2,2024-149AV,2026-07-22T04:50:53.001312,15.56583896,.00053744,97.3818,291.5976,154.8830,205.2687,0,U,60511,999,10794,.10795358E-2,.77269E-3,0
FLOCK 4BE-13,2024-149AW,2026-07-23T03:55:10.775424,15.42782938,.00054931,97.3710,288.9698,132.9968,227.1741,0,U,60512,999,10791,.34877542E-3,.1519E-3,0
FLOCK 4BE-27,2024-149AX,2026-07-23T04:25:43.949280,15.35024754,.0004716,97.3815,286.0653,157.3006,202.8447,0,U,60513,999,10766,.29375329E-3,.9907E-4,0
FLOCK 4BE-9,2024-149AY,2026-07-23T04:28:46.397568,15.41818969,.0004219,97.3782,288.8315,150.1621,209.9868,0,U,60514,999,10786,.43122021E-3,.18209E-3,0
